NORAD_CAT_ID,OBJECT_NAME,OBJECT_TYPE,EPOCH,MEAN_MOTION,ECCENTRICITY,INCLINATION,RA_OF_ASC_NODE,ARG_OF_PERICENTER,MEAN_ANOMALY,BSTAR,MEAN_MOTION_DOT,MEAN_MOTION_DDOT,TLE_LINE0,TLE_LINE1,TLE_LINE2,SEMIMAJOR_AXIS,PERIOD,APOGEE,PERIGEE,DECAYED
52292.0,STARLINK-3753,PAYLOAD,2023-03-27 18:12:33,15.088906,0.0001011,53.2143,258.1418,101.383,258.7276,0.0016746,0.00026501,0.0,0 STARLINK-3753,1 52292U 22041AH  23086.75872670  .00026501  00000-0  16746-2 0  9990,2 52292  53.2143 258.1418 0001011 101.3830 258.7276 15.08890600 52997,6917.726,95.434,540.29,538.891,0.0
52292.0,STARLINK-3753,PAYLOAD,2023-03-28 03:44:52,15.08865336,0.0001272,53.2145,256.3576,91.7298,268.384,0.00016405,2.326e-05,0.0,0 STARLINK-3753,1 52292U 22041AH  23087.15616219  .00002326  00000-0  16405-3 0  9992,2 52292  53.2145 256.3576 0001272  91.7298 268.3840 15.08865336 53053,6917.803,95.436,540.548,538.788,0.0
52292.0,STARLINK-3753,PAYLOAD,2023-03-28 11:41:48,15.08860342,0.0002026,53.214,254.8713,79.3248,280.7972,0.00085755,0.00013394,0.0,0 STARLINK-3753,1 52292U 22041AH  23087.48736265  .00013394  00000-0  85755-3 0  9993,2 52292  53.2140 254.8713 0002026  79.3248 280.7972 15.08860342 51884,6917.818,95.436,541.085,538.282,0.0
52292.0,STARLINK-3753,PAYLOAD,2023-03-28 18:03:20,15.08847965,0.0001211,53.215,253.6844,115.5069,244.6049,0.0012295,0.00019338,0.0,0 STARLINK-3753,1 52292U 22041AH  23087.75232055  .00019338  00000-0  12295-2 0  9993,2 52292  53.2150 253.6844 0001211 115.5069 244.6049 15.08847965 53147,6917.856,95.437,540.559,538.883,0.0
52292.0,STARLINK-3753,PAYLOAD,2023-03-29 03:35:39,15.08845019,5.19e-05,53.2141,251.8972,154.941,205.1608,0.00062569,9.686e-05,0.0,0 STARLINK-3753,1 52292U 22041AH  23088.14975808  .00009686  00000-0  62569-3 0  9992,2 52292  53.2141 251.8972 0000519 154.9410 205.1608 15.08845019 53204,6917.865,95.437,540.089,539.371,0.0
52292.0,STARLINK-3753,PAYLOAD,2023-03-29 17:54:07,15.08862721,8.74e-05,53.2136,249.2211,89.7189,270.3903,0.0021579,0.00034244,0.0,0 STARLINK-3753,1 52292U 22041AH  23088.74591909  .00034244  00000-0  21579-2 0  9997,2 52292  53.2136 249.2211 0000874  89.7189 270.3903 15.08862721 52072,6917.811,95.436,540.281,539.071,0.0
52292.0,STARLINK-3753,PAYLOAD,2023-03-29 21:04:53,15.08870814,8.86e-05,53.2138,248.6256,86.3856,273.7237,0.0021339,0.00033865,0.0,0 STARLINK-3753,1 52292U 22041AH  23088.87839636  .00033865  00000-0  21339-2 0  9995,2 52292  53.2138 248.6256 0000886  86.3856 273.7237 15.08870814 53310,6917.786,95.436,540.264,539.038,0.0
52292.0,STARLINK-3753,PAYLOAD,2023-03-30 17:44:54,15.08855496,0.0001233,53.2137,244.7594,84.2296,275.8837,0.0020806,0.00032994,0.0,0 STARLINK-3753,1 52292U 22041AH  23089.73952267  .00032994  00000-0  20806-2 0  9997,2 52292  53.2137 244.7594 0001233  84.2296 275.8837 15.08855496 53445,6917.833,95.437,540.551,538.845,0.0
52292.0,STARLINK-3753,PAYLOAD,2023-03-31 03:17:13,15.08847224,0.0001218,53.2136,242.9771,94.2941,265.819,0.0014024,0.00022106,0.0,0 STARLINK-3753,1 52292U 22041AH  23090.13696362  .00022106  00000-0  14024-2 0  9993,2 52292  53.2136 242.9771 0001218  94.2941 265.8190 15.08847224 53500,6917.858,95.437,540.566,538.881,0.0
52292.0,STARLINK-3753,PAYLOAD,2023-03-31 14:24:55,15.08849049,0.000119,53.213,240.8954,95.8475,264.2653,0.0017985,0.00028458,0.0,0 STARLINK-3753,1 52292U 22041AH  23090.60064571  .00028458  00000-0  17985-2 0  9991,2 52292  53.2130 240.8954 0001190  95.8475 264.2653 15.08849049 53573,6917.853,95.437,540.541,538.895,0.0
52292.0,STARLINK-3753,PAYLOAD,2023-04-01 03:08:00,15.08848955,0.0001047,53.213,238.517,93.9672,266.144,0.00095859,0.00015005,0.0,0 STARLINK-3753,1 52292U 22041AH  23091.13056498  .00015005  00000-0  95859-3 0  9990,2 52292  53.2130 238.5170 0001047  93.9672 266.1440 15.08848955 53655,6917.853,95.437,540.442,538.994,0.0
52292.0,STARLINK-3753,PAYLOAD,2023-04-01 12:40:20,15.08828131,0.0001039,53.2129,236.732,100.4711,259.6398,0.00018448,2.649e-05,0.0,0 STARLINK-3753,1 52292U 22041AH  23091.52801015  .00002649  00000-0  18448-3 0  9995,2 52292  53.2129 236.7320 0001039 100.4711 259.6398 15.08828131 53719,6917.917,95.438,540.5,539.063,0.0
52292.0,STARLINK-3753,PAYLOAD,2023-04-01 15:51:06,15.0883245,0.0001152,53.2129,236.1372,106.5419,253.57,0.00031415,4.714e-05,0.0,0 STARLINK-3753,1 52292U 22041AH  23091.66049065  .00004714  00000-0  31415-3 0  9993,2 52292  53.2129 236.1372 0001152 106.5419 253.5700 15.08832450 52514,6917.903,95.438,540.565,538.972,0.0
52292.0,STARLINK-3753,PAYLOAD,2023-04-02 14:06:30,15.08853196,0.0001103,53.2131,231.9739,102.0836,258.028,0.00097753,0.00015309,0.0,0 STARLINK-3753,1 52292U 22041AH  23092.58785190  .00015309  00000-0  97753-3 0  9990,2 52292  53.2131 231.9739 0001103 102.0836 258.0280 15.08853196 53870,6917.84,95.437,540.468,538.942,0.0
52292.0,STARLINK-3753,PAYLOAD,2023-04-02 18:52:39,15.08863663,0.0001203,53.2135,231.0802,106.4558,253.6566,0.0010932,0.00017164,0.0,0 STARLINK-3753,1 52292U 22041AH  23092.78656795  .00017164  00000-0  10932-2 0  9994,2 52292  53.2135 231.0802 0001203 106.4558 253.6566 15.08863663 52682,6917.808,95.436,540.505,538.841,0.0
52292.0,STARLINK-3753,PAYLOAD,2023-04-03 02:49:35,15.08840818,0.0002108,53.2135,229.5978,63.0329,297.0878,0.00038884,5.906e-05,0.0,0 STARLINK-3753,1 52292U 22041AH  23093.11777612  .00005906  00000-0  38884-3 0  9992,2 52292  53.2135 229.5978 0002108  63.0329 297.0878 15.08840818 53953,6917.878,95.438,541.201,538.285,0.0
52292.0,STARLINK-3753,PAYLOAD,2023-04-03 12:21:54,15.08843184,0.0001547,53.2142,227.8091,86.5337,273.5832,0.0002931,4.38e-05,0.0,0 STARLINK-3753,1 52292U 22041AH  23093.51521349  .00004380  00000-0  29310-3 0  9999,2 52292  53.2142 227.8091 0001547  86.5337 273.5832 15.08843184 52792,6917.871,95.437,540.806,538.665,0.0
52292.0,STARLINK-3753,PAYLOAD,2023-04-04 12:12:41,15.08854777,0.0001337,53.2143,223.3498,66.6096,293.5037,0.00082016,0.00012794,0.0,0 STARLINK-3753,1 52292U 22041AH  23094.50881263  .00012794  00000-0  82016-3 0  9993,2 52292  53.2143 223.3498 0001337  66.6096 293.5037 15.08854777 54165,6917.835,95.437,540.625,538.775,0.0
52292.0,STARLINK-3753,PAYLOAD,2023-04-04 18:34:13,15.0886048,0.0001273,53.2138,222.1578,95.4306,264.6831,0.00071859,0.00011173,0.0,0 STARLINK-3753,1 52292U 22041AH  23094.77376746  .00011173  00000-0  71859-3 0  9990,2 52292  53.2138 222.1578 0001273  95.4306 264.6831 15.08860480 52985,6917.818,95.436,540.563,538.802,0.0
52292.0,STARLINK-3753,PAYLOAD,2023-04-05 13:38:51,15.08841962,0.0001234,53.2142,218.5905,91.0437,269.0697,0.00023318,3.425e-05,0.0,0 STARLINK-3753,1 52292U 22041AH  23095.56865135  .00003425  00000-0  23318-3 0  9991,2 52292  53.2142 218.5905 0001234  91.0437 269.0697 15.08841962 54320,6917.874,95.437,540.593,538.886,0.0
52292.0,STARLINK-3753,PAYLOAD,2023-04-05 15:14:14,15.08845041,0.0001229,53.2144,218.2932,93.7383,266.3749,0.00038198,5.797e-05,0.0,0 STARLINK-3753,1 52292U 22041AH  23095.63489093  .00005797  00000-0  38198-3 0  9990,2 52292  53.2144 218.2932 0001229  93.7383 266.3749 15.08845041 53118,6917.865,95.437,540.58,538.88,0.0
52292.0,STARLINK-3753,PAYLOAD,2023-04-06 07:08:06,15.08837242,0.0001246,53.2142,215.32,96.2685,263.8449,6.9339e-05,8.16e-06,0.0,0 STARLINK-3753,1 52292U 22041AH  23096.29729400  .00000816  00000-0  69339-4 0  9991,2 52292  53.2142 215.3200 0001246  96.2685 263.8449 15.08837242 54433,6917.889,95.438,540.616,538.892,0.0
52292.0,STARLINK-3753,PAYLOAD,2023-04-06 11:54:15,15.0883938,0.0001235,53.214,214.4285,97.9442,262.1691,6.5045e-05,7.47e-06,0.0,0 STARLINK-3753,1 52292U 22041AH  23096.49601332  .00000747  00000-0  65045-4 0  9999,2 52292  53.2140 214.4285 0001235  97.9442 262.1691 15.08839380 53245,6917.882,95.438,540.602,538.893,0.0
52292.0,STARLINK-3753,PAYLOAD,2023-04-06 16:40:24,15.08844447,0.0001503,53.2159,213.537,99.6869,260.4293,0.00015037,2.106e-05,0.0,0 STARLINK-3753,1 52292U 22041AH  23096.69473193  .00002106  00000-0  15037-3 0  9999,2 52292  53.2159 213.5370 0001503  99.6869 260.4293 15.08844447 53272,6917.867,95.437,540.772,538.692,0.0
52292.0,STARLINK-3753,PAYLOAD,2023-04-07 11:45:02,15.08839492,0.0001022,53.2172,209.9698,79.3505,280.7602,9.0889e-05,1.159e-05,0.0,0 STARLINK-3753,1 52292U 22041AH  23097.48961400  .00001159  00000-0  90889-4 0  9996,2 52292  53.2172 209.9698 0001022  79.3505 280.7602 15.08839492 54619,6917.882,95.438,540.454,539.04,0.0
52292.0,STARLINK-3753,PAYLOAD,2023-04-08 13:11:13,15.08838659,0.0001392,53.2161,205.211,84.5533,275.5617,-5.1938e-06,-3.71e-06,0.0,0 STARLINK-3753,1 52292U 22041AH  23098.54945658 -.00000371  00000-0 -51938-5 0  9991,2 52292  53.2161 205.2110 0001392  84.5533 275.5617 15.08838659 53558,6917.884,95.438,540.712,538.787,0.0
52292.0,STARLINK-3753,PAYLOAD,2023-04-08 14:46:36,15.08838633,0.0001412,53.2162,204.9145,88.4879,271.6275,5.4264e-05,5.76e-06,0.0,0 STARLINK-3753,1 52292U 22041AH  23098.61569668  .00000576  00000-0  54264-4 0  9991,2 52292  53.2162 204.9145 0001412  88.4879 271.6275 15.08838633 54787,6917.885,95.438,540.726,538.773,0.0
52292.0,STARLINK-3753,PAYLOAD,2023-04-09 06:40:27,15.08837244,0.0001442,53.2164,201.9415,81.3446,278.771,0.00011134,1.484e-05,0.0,0 STARLINK-3753,1 52292U 22041AH  23099.27809910  .00001484  00000-0  11134-3 0  9998,2 52292  53.2164 201.9415 0001442  81.3446 278.7710 15.08837244 53666,6917.889,95.438,540.751,538.756,0.0
52292.0,STARLINK-3753,PAYLOAD,2023-04-09 13:02:00,15.0883994,0.0001312,53.2165,200.7523,70.7559,289.3575,7.3671e-05,8.85e-06,0.0,0 STARLINK-3753,1 52292U 22041AH  23099.54305827  .00000885  00000-0  73671-4 0  9995,2 52292  53.2165 200.7523 0001312  70.7559 289.3575 15.08839940 53704,6917.881,95.438,540.653,538.838,0.0
52292.0,STARLINK-3753,PAYLOAD,2023-04-10 06:31:14,15.08841197,0.0001535,53.2157,197.4813,82.1632,277.9534,0.00021981,3.212e-05,0.0,0 STARLINK-3753,1 52292U 22041AH  23100.27169869  .00003212  00000-0  21981-3 0  9995,2 52292  53.2157 197.4813 0001535  82.1632 277.9534 15.08841197 55038,6917.877,95.437,540.804,538.68,0.0
